OBJECT_NAME,OBJECT_ID,EPOCH,MEAN_MOTION,ECCENTRICITY,INCLINATION,RA_OF_ASC_NODE,ARG_OF_PERICENTER,MEAN_ANOMALY,EPHEMERIS_TYPE,CLASSIFICATION_TYPE,NORAD_CAT_ID,ELEMENT_SET_NO,REV_AT_EPOCH,BSTAR,MEAN_MOTION_DOT,MEAN_MOTION_DDOT
POLYITAN-1,2014-033AJ,2026-07-22T19:14:20.017248,15.34423054,.00071322,98.0941,233.4633,41.2035,318.9743,0,U,40042,999,65905,.62260521E-3,.20715E-3,0
TIGRISAT,2014-033AK,2026-07-22T16:30:27.140832,14.85264867,.0048073,97.7874,352.8969,319.3573,40.4058,0,U,40043,999,65089,.13978452E-3,.1168E-4,0
AEROCUBE 6A,2014-033AM,2026-07-22T00:27:42.498432,14.98399557,.00360891,97.7273,9.6095,257.4142,102.3043,0,U,40045,999,65183,.50746973E-3,.6076E-4,0
AEROCUBE 6B,2014-033AN,2026-07-22T22:07:18.709248,14.99854305,.00382894,97.7204,10.3625,242.8320,116.8998,0,U,40046,999,65211,.49294467E-3,.6141E-4,0
CANX-4,2014-034C,2026-07-22T14:45:54.686592,14.81319972,.0011382,98.3073,80.2214,256.1364,103.8581,0,U,40055,999,64977,.89047203E-4,.638E-5,0
CANX-5,2014-034D,2026-07-22T14:43:03.534240,14.81337367,.00113863,98.3075,80.2650,256.3978,103.5965,0,U,40056,999,64058,.8962165E-4,.643E-5,0
UKUBE-1,2014-037F,2026-07-22T00:03:56.437056,15.14023415,.00031348,98.4254,209.9476,76.9955,283.1624,0,U,40074,999,65382,.4640491E-3,.8356E-4,0
BRITE-PL2 (HEWELIUSZ),2014-049B,2026-07-22T14:05:14.385120,14.94702812,.0013634,97.9122,315.8672,358.1835,1.9333,0,U,40119,999,64673,.15180654E-3,.159E-4,0
AEROCUBE 5C,2015-058B,2026-07-22T20:11:12.512256,14.91615784,.01329001,64.7664,151.6577,49.5279,311.7328,0,U,40965,999,37097,.32795794E-3,.3737E-4,0
AEROCUBE 7,2015-058C,2026-07-22T19:14:15.204768,14.95969131,.0122601,64.7619,133.2427,47.8463,313.2987,0,U,40966,999,37128,.40809264E-3,.5161E-4,0
FOX-1A (AO-85),2015-058D,2026-07-22T15:10:08.718240,14.91124323,.01330069,64.7740,168.8173,42.9921,318.1491,0,U,40967,999,11885,.30732926E-3,.3443E-4,0
SINOD-D 1,2015-058E,2026-07-22T20:12:42.390720,14.96147433,.01216849,64.7744,147.2342,39.2677,321.7184,0,U,40968,999,12199,.47012017E-3,.5991E-4,0
SNAP-3 ALICE,2015-058G,2026-07-22T18:37:13.651680,15.68961864,.0026524,64.7491,340.0743,343.8665,16.1638,0,U,40970,999,12245,.13833318E-2,.166576E-2,0
LMRST-SAT,2015-058H,2026-07-22T07:52:30.514080,14.90735235,.01344871,64.7746,166.1674,45.0995,316.0939,0,U,40971,999,11879,.28031469E-3,.3103E-4,0
SNAP-3 EDDIE,2015-058J,2026-07-21T18:44:49.995744,15.70146276,.00275224,64.7407,334.0108,347.0844,12.9598,0,U,40972,999,12444,.14491926E-2,.183998E-2,0
PROPCUBE 3,2015-058K,2026-07-22T19:29:34.664064,14.94464619,.01263515,64.7680,141.2116,46.1017,315.0446,0,U,40973,999,12012,.37472504E-3,.4572E-4,0
BISONSAT,2015-058L,2026-07-21T23:32:29.471424,15.17053963,.00827168,64.7585,61.0694,32.8987,327.7246,0,U,40974,999,12089,.63848961E-3,.13682E-3,0
SNAP-3 JIMI,2015-058M,2026-07-22T17:34:45.400224,15.02687601,.01083596,64.7645,107.2754,41.4025,319.5240,0,U,40975,999,11956,.50478678E-3,.75E-4,0
PROPCUBE 1 (FLORA),2015-058N,2026-07-22T07:34:10.153920,14.89355925,.0133036,64.7730,186.3510,47.3732,313.8504,0,U,40976,999,12149,.26510306E-3,.2804E-4,0
SINOD-D 3,2015-058P,2026-07-22T21:59:48.531552,14.94225073,.01216483,64.7713,164.2284,44.1831,316.8919,0,U,40977,999,12009,.43097415E-3,.5191E-4,0
RAVAN,2016-067B,2026-07-22T15:51:50.520960,15.58100639,.00033824,97.9829,97.4213,186.1117,174.0097,0,U,41849,999,53321,.81562113E-3,.61598E-3,0
CELTEE 1,2016-067C,2026-07-22T21:22:59.526336,15.19994618,.0002487,98.0633,72.8932,100.0072,260.1442,0,U,41850,999,53130,.24073294E-3,.5107E-4,0
OPTICUBE 04,2016-067D,2026-07-22T20:51:53.739072,15.09794660,.00155445,98.0668,58.0119,2.5585,357.5719,0,U,41851,999,53055,.12254978E-3,.1913E-4,0
AEROCUBE 8D,2016-067E,2026-07-22T04:51:37.372896,15.24838026,.00041685,98.0636,76.0403,38.5037,321.6496,0,U,41852,999,53140,.30652753E-3,.7533E-4,0
AEROCUBE 8C,2016-067F,2026-07-22T21:04:02.948160,15.25100953,.00037168,98.0510,73.9494,309.3108,50.7798,0,U,41853,999,53150,.30896067E-3,.7654E-4,0
CORVUS BC2,2017-042X,2026-07-22T09:36:24.097824,15.06484162,.00127041,97.4098,3.3923,358.0532,2.0644,0,U,42846,999,49236,.18691588E-3,.2704E-4,0
CORVUS BC1,2017-042Y,2026-07-21T23:49:15.008448,15.06649513,.0010982,97.4131,3.8368,335.6933,24.3775,0,U,42847,999,49233,.20227378E-3,.2944E-4,0
MAKERSAT 0,2017-073D,2026-07-22T04:11:26.600352,15.33199943,.01057308,97.4572,85.9833,147.5495,213.2308,0,U,43016,999,47182,.59186915E-3,.22676E-3,0
SIRION PATHFINDER-2,2018-099B,2026-07-22T09:25:34.406976,15.14818383,.00092127,97.4236,251.6156,167.1431,193.0038,0,U,43759,999,41795,.20801386E-3,.3802E-4,0
CORVUS BC4,2018-099K,2026-07-22T21:51:00.007200,15.12745018,.00069248,97.4051,245.8467,228.3285,131.7354,0,U,43767,999,41780,.22441767E-3,.3872E-4,0
